{
    "links": {
        "self": "http://www.neowsapp.com/rest/v1/neo/3709968?api_key=iIulBulltgU6a56xZRHN4H3l9WmuAYTsLGpBGhQ2"
    },
    "id": "3709968",
    "neo_reference_id": "3709968",
    "name": "(2015 CH1)",
    "designation": "2015 CH1",
    "nasa_jpl_url": "http://ssd.jpl.nasa.gov/sbdb.cgi?sstr=3709968",
    "absolute_magnitude_h": 25.2,
    "estimated_diameter": {
        "kilometers": {
            "estimated_diameter_min": 0.0242412481,
            "estimated_diameter_max": 0.0542050786
        },
        "meters": {
            "estimated_diameter_min": 24.2412481101,
            "estimated_diameter_max": 54.2050786336
        },
        "miles": {
            "estimated_diameter_min": 0.0150628086,
            "estimated_diameter_max": 0.0336814639
        },
        "feet": {
            "estimated_diameter_min": 79.5316564495,
            "estimated_diameter_max": 177.8381901842
        }
    },
    "is_potentially_hazardous_asteroid": false,
    "close_approach_data": [
        {
            "close_approach_date": "2015-01-20",
            "close_approach_date_full": "2015-Jan-20 19:02",
            "epoch_date_close_approach": 1421780520000,
            "relative_velocity": {
                "kilometers_per_second": "8.1136626937",
                "kilometers_per_hour": "29209.1856972749",
                "miles_per_hour": "18149.4520795095"
            },
            "miss_distance": {
                "astronomical": "0.0610715935",
                "lunar": "23.7568498715",
                "kilometers": "9136180.305105845",
                "miles": "5676959.197496861"
            },
            "orbiting_body": "Earth"
        }
    ],
    "orbital_data": {
        "orbit_id": "8",
        "orbit_determination_date": "2017-04-06 08:35:45",
        "first_observation_date": "2015-02-10",
        "last_observation_date": "2015-02-24",
        "data_arc_in_days": 14,
        "observations_used": 28,
        "orbit_uncertainty": "8",
        "minimum_orbit_intersection": ".0604837",
        "jupiter_tisserand_invariant": "3.900",
        "epoch_osculation": "2457068.5",
        "eccentricity": ".4596446139034482",
        "semi_major_axis": "1.821247382682509",
        "inclination": "7.072730901471548",
        "ascending_node_longitude": "321.741546799164",
        "orbital_period": "897.7426080238416",
        "perihelion_distance": ".9841208326467413",
        "perihelion_argument": "129.5308508735472",
        "aphelion_distance": "2.658373932718276",
        "perihelion_time": "2457019.495868913130",
        "mean_anomaly": "19.65094118692503",
        "mean_motion": ".4010058081040077",
        "equinox": "J2000",
        "orbit_class": {
            "orbit_class_type": "APO",
            "orbit_class_description": "Near-Earth asteroid orbits which cross the Earth’s orbit similar to that of 1862 Apollo",
            "orbit_class_range": "a (semi-major axis) > 1.0 AU; q (perihelion) < 1.017 AU"
        }
    },
    "is_sentry_object": false
}